{
  "type": "FeatureCollection",
  "features": [
    {
      "type": "Feature",
      "properties": {
        "name": "奈良県道214号月瀬三ヶ谷線（大塩～箕輪）（線形改良）",
        "住所又は概略位置": "奈良県山添村大字箕輪",
        "更新日": "2025/08/01",
        "_markerType": "Icon",
        "_iconUrl": "./icon/taihisya.svg",
        "_iconSize": [
          20,
          20
        ],
        "_iconAnchor": [
          10,
          10
        ]
      },
      "geometry": {
        "type": "Point",
        "coordinates": [
          136.011289,
          34.670087
        ]
      }
    },
    {
      "type": "Feature",
      "properties": {
        "name": "広島電鉄駅前大橋ルート",
        "住所又は概略位置": "広島県広島市南区松原町",
        "更新日": "2025/08/03",
        "_markerType": "Icon",
        "_iconUrl": "./icon/taihisya.svg",
        "_iconSize": [
          20,
          20
        ],
        "_iconAnchor": [
          10,
          10
        ]
      },
      "geometry": {
        "type": "Point",
        "coordinates": [
          132.474711,
          34.396256
        ]
      }
    },
    {
      "type": "Feature",
      "properties": {
        "name": "南山東部土地区画整理事業 多摩３・４・16号稲城南多摩線 新設",
        "住所又は概略位置": "東京都稲城市東長沼",
        "更新日": "2025/08/05",
        "_markerType": "Icon",
        "_iconUrl": "./icon/taihisya.svg",
        "_iconSize": [
          20,
          20
        ],
        "_iconAnchor": [
          10,
          10
        ]
      },
      "geometry": {
        "type": "Point",
        "coordinates": [
          139.508632,
          35.63083
        ]
      }
    },
    {
      "type": "Feature",
      "properties": {
        "name": "岐阜県道118号羽島稲沢線(下中町工区)",
        "住所又は概略位置": "岐阜県羽島市下中町加賀野井",
        "更新日": "2025/08/05",
        "_markerType": "Icon",
        "_iconUrl": "./icon/taihisya.svg",
        "_iconSize": [
          20,
          20
        ],
        "_iconAnchor": [
          10,
          10
        ]
      },
      "geometry": {
        "type": "Point",
        "coordinates": [
          136.712826,
          35.290515
        ]
      }
    },
    {
      "type": "Feature",
      "properties": {
        "name": "愛知県道135号羽島稲沢線(新濃尾大橋)",
        "住所又は概略位置": "岐阜県羽島市下中町加賀野井",
        "更新日": "2025/08/05",
        "_markerType": "Icon",
        "_iconUrl": "./icon/taihisya.svg",
        "_iconSize": [
          20,
          20
        ],
        "_iconAnchor": [
          10,
          10
        ]
      },
      "geometry": {
        "type": "Point",
        "coordinates": [
          136.718057,
          35.288154
        ]
      }
    },
    {
      "type": "Feature",
      "properties": {
        "name": "常磐自動車道「いわき小名浜IC」",
        "住所又は概略位置": "福島県いわき市山田町",
        "更新日": "2025/08/07",
        "_markerType": "Icon",
        "_iconUrl": "./icon/taihisya.svg",
        "_iconSize": [
          20,
          20
        ],
        "_iconAnchor": [
          10,
          10
        ]
      },
      "geometry": {
        "type": "Point",
        "coordinates": [
          140.781223,
          36.952708
        ]
      }
    },
    {
      "type": "Feature",
      "properties": {
        "name": "福島県主要地方道20号いわき上三坂小野線（小名浜道路）",
        "住所又は概略位置": "福島県いわき市添野町",
        "更新日": "2025/08/07",
        "_markerType": "Icon",
        "_iconUrl": "./icon/taihisya.svg",
        "_iconSize": [
          20,
          20
        ],
        "_iconAnchor": [
          10,
          10
        ]
      },
      "geometry": {
        "type": "Point",
        "coordinates": [
          140.801264,
          36.938097
        ]
      }
    },
    {
      "type": "Feature",
      "properties": {
        "name": "道の駅「マチテラス日進」",
        "住所又は概略位置": "愛知県日進市本郷町",
        "更新日": "2025/08/08",
        "_markerType": "Icon",
        "_iconUrl": "./icon/taihisya.svg",
        "_iconSize": [
          20,
          20
        ],
        "_iconAnchor": [
          10,
          10
        ]
      },
      "geometry": {
        "type": "Point",
        "coordinates": [
          137.043564,
          35.138147
        ]
      }
    },
    {
      "type": "Feature",
      "properties": {
        "name": "伊沢中央２期地区(拡幅)",
        "住所又は概略位置": "徳島県阿波市阿波町綱懸",
        "更新日": "2025/08/19",
        "_markerType": "Icon",
        "_iconUrl": "./icon/taihisya.svg",
        "_iconSize": [
          20,
          20
        ],
        "_iconAnchor": [
          10,
          10
        ]
      },
      "geometry": {
        "type": "Point",
        "coordinates": [
          134.222766,
          34.089201
        ]
      }
    },
    {
      "type": "Feature",
      "properties": {
        "name": "国道430号玉拡幅",
        "住所又は概略位置": "岡山県玉野市玉三丁目",
        "更新日": "2025/08/19",
        "_markerType": "Icon",
        "_iconUrl": "./icon/taihisya.svg",
        "_iconSize": [
          20,
          20
        ],
        "_iconAnchor": [
          10,
          10
        ]
      },
      "geometry": {
        "type": "Point",
        "coordinates": [
          133.930968,
          34.476885
        ]
      }
    },
    {
      "type": "Feature",
      "properties": {
        "name": "観音寺市道南下津4号線(新設)",
        "住所又は概略位置": "香川県観音寺市南町四丁目",
        "更新日": "2025/08/19",
        "_markerType": "Icon",
        "_iconUrl": "./icon/taihisya.svg",
        "_iconSize": [
          20,
          20
        ],
        "_iconAnchor": [
          10,
          10
        ]
      },
      "geometry": {
        "type": "Point",
        "coordinates": [
          133.645849,
          34.117394
        ]
      }
    },
    {
      "type": "Feature",
      "properties": {
        "name": "南国市道南国駅前線（南国市シンボルロード）(新設)",
        "住所又は概略位置": "高知県南国市駅前町二丁目",
        "更新日": "2025/08/21",
        "_markerType": "Icon",
        "_iconUrl": "./icon/taihisya.svg",
        "_iconSize": [
          20,
          20
        ],
        "_iconAnchor": [
          10,
          10
        ]
      },
      "geometry": {
        "type": "Point",
        "coordinates": [
          133.645849,
          33.576913
        ]
      }
    },
    {
      "type": "Feature",
      "properties": {
        "name": "宜野湾市道_喜友名23号線",
        "住所又は概略位置": "沖縄県宜野湾市字喜友名",
        "更新日": "2025/08/21",
        "_markerType": "Icon",
        "_iconUrl": "./icon/taihisya.svg",
        "_iconSize": [
          20,
          20
        ],
        "_iconAnchor": [
          10,
          10
        ]
      },
      "geometry": {
        "type": "Point",
        "coordinates": [
          127.761126,
          26.292525
        ]
      }
    },
    {
      "type": "Feature",
      "properties": {
        "name": "一般国道1号栗東水口道路1)ほか",
        "住所又は概略位置": "滋賀県栗東市小野",
        "更新日": "2025/08/23",
        "_markerType": "Icon",
        "_iconUrl": "./icon/taihisya.svg",
        "_iconSize": [
          20,
          20
        ],
        "_iconAnchor": [
          10,
          10
        ]
      },
      "geometry": {
        "type": "Point",
        "coordinates": [
          136.014079,
          35.012982
        ]
      }
    },
    {
      "type": "Feature",
      "properties": {
        "name": "和泉市立槇尾学園（小中一貫校）",
        "住所又は概略位置": "大阪府和泉市仏並町",
        "更新日": "2025/08/26",
        "_markerType": "Icon",
        "_iconUrl": "./icon/taihisya.svg",
        "_iconSize": [
          20,
          20
        ],
        "_iconAnchor": [
          10,
          10
        ]
      },
      "geometry": {
        "type": "Point",
        "coordinates": [
          135.487958,
          34.425864
        ]
      }
    },
    {
      "type": "Feature",
      "properties": {
        "name": "圏央道 つくば中央IC～牛久阿見IC 4車線化",
        "住所又は概略位置": "茨城県牛久市猪子町",
        "更新日": "2025/08/29",
        "_markerType": "Icon",
        "_iconUrl": "./icon/taihisya.svg",
        "_iconSize": [
          20,
          20
        ],
        "_iconAnchor": [
          10,
          10
        ]
      },
      "geometry": {
        "type": "Point",
        "coordinates": [
          140.147937,
          36.001178
        ]
      }
    },
    {
      "type": "Feature",
      "properties": {
        "name": "鹿沼市道0344号線（鹿沼駅東通り）新設",
        "住所又は概略位置": "栃木県鹿沼市上野町",
        "更新日": "2025/08/29",
        "_markerType": "Icon",
        "_iconUrl": "./icon/taihisya.svg",
        "_iconSize": [
          20,
          20
        ],
        "_iconAnchor": [
          10,
          10
        ]
      },
      "geometry": {
        "type": "Point",
        "coordinates": [
          139.764837,
          36.571756
        ]
      }
    },
    {
      "type": "Feature",
      "properties": {
        "name": "圏央道 阿見東IC～稲敷IC 4車線化",
        "住所又は概略位置": "茨城県稲敷市月出里",
        "更新日": "2025/08/29",
        "_markerType": "Icon",
        "_iconUrl": "./icon/taihisya.svg",
        "_iconSize": [
          20,
          20
        ],
        "_iconAnchor": [
          10,
          10
        ]
      },
      "geometry": {
        "type": "Point",
        "coordinates": [
          140.265976,
          35.976163
        ]
      }
    },
    {
      "type": "Feature",
      "properties": {
        "name": "東海環状自動車道(本巣IC～大野神戸IC)",
        "住所又は概略位置": "岐阜県本巣市七五三",
        "更新日": "2025/08/30",
        "_markerType": "Icon",
        "_iconUrl": "./icon/taihisya.svg",
        "_iconSize": [
          20,
          20
        ],
        "_iconAnchor": [
          10,
          10
        ]
      },
      "geometry": {
        "type": "Point",
        "coordinates": [
          136.653657,
          35.444759
        ]
      }
    }
  ]
}
