{
  "type": "FeatureCollection",
  "features": [
    {
      "type": "Feature",
      "properties": {
        "name": "国道159号羽咋道路（新設）",
        "住所又は概略位置": "石川県羽咋市本江町",
        "更新日": "2025/11/01",
        "_markerType": "Icon",
        "_iconUrl": "./icon/heri.svg",
        "_iconSize": [
          20,
          20
        ],
        "_iconAnchor": [
          10,
          10
        ]
      },
      "geometry": {
        "type": "Point",
        "coordinates": [
          136.838825,
          36.914715
        ]
      }
    },
    {
      "type": "Feature",
      "properties": {
        "name": "石川県道232号若部千里浜インター線　志々見（新設）",
        "住所又は概略位置": "石川県羽咋市尾長町",
        "更新日": "2025/11/01",
        "_markerType": "Icon",
        "_iconUrl": "./icon/heri.svg",
        "_iconSize": [
          20,
          20
        ],
        "_iconAnchor": [
          10,
          10
        ]
      },
      "geometry": {
        "type": "Point",
        "coordinates": [
          136.825458,
          36.906503
        ]
      }
    },
    {
      "type": "Feature",
      "properties": {
        "name": "桜川市道M2753号線・石岡市道B3570号線 新設",
        "住所又は概略位置": "茨城県石岡市上曽",
        "更新日": "2025/11/05",
        "_markerType": "Icon",
        "_iconUrl": "./icon/heri.svg",
        "_iconSize": [
          20,
          20
        ],
        "_iconAnchor": [
          10,
          10
        ]
      },
      "geometry": {
        "type": "Point",
        "coordinates": [
          140.13422,
          36.263342
        ]
      }
    },
    {
      "type": "Feature",
      "properties": {
        "name": "津野町役場(移転)",
        "住所又は概略位置": "高知県津野町永野",
        "更新日": "2025/11/05",
        "_markerType": "Icon",
        "_iconUrl": "./icon/heri.svg",
        "_iconSize": [
          20,
          20
        ],
        "_iconAnchor": [
          10,
          10
        ]
      },
      "geometry": {
        "type": "Point",
        "coordinates": [
          133.204165,
          33.444853
        ]
      }
    },
    {
      "type": "Feature",
      "properties": {
        "name": "熊本県道342号砂原四方寄線(池上IC～花園IC)",
        "住所又は概略位置": "熊本県熊本市西区花園六丁目",
        "更新日": "2025/11/18",
        "_markerType": "Icon",
        "_iconUrl": "./icon/heri.svg",
        "_iconSize": [
          20,
          20
        ],
        "_iconAnchor": [
          10,
          10
        ]
      },
      "geometry": {
        "type": "Point",
        "coordinates": [
          130.67555,
          32.823661
        ]
      }
    },
    {
      "type": "Feature",
      "properties": {
        "name": "熊本県道344号池上インター線",
        "住所又は概略位置": "熊本県熊本市西区池上町",
        "更新日": "2025/11/18",
        "_markerType": "Icon",
        "_iconUrl": "./icon/heri.svg",
        "_iconSize": [
          20,
          20
        ],
        "_iconAnchor": [
          10,
          10
        ]
      },
      "geometry": {
        "type": "Point",
        "coordinates": [
          130.669134,
          32.793561
        ]
      }
    },
    {
      "type": "Feature",
      "properties": {
        "name": "道東自動車道4車線化_トマムIC～十勝清水IC",
        "住所又は概略位置": "北海道清水町字清水",
        "更新日": "2025/11/21",
        "_markerType": "Icon",
        "_iconUrl": "./icon/heri.svg",
        "_iconSize": [
          20,
          20
        ],
        "_iconAnchor": [
          10,
          10
        ]
      },
      "geometry": {
        "type": "Point",
        "coordinates": [
          142.845276,
          43.004388
        ]
      }
    },
    {
      "type": "Feature",
      "properties": {
        "name": "日野バイパス（延伸）",
        "住所又は概略位置": "東京都日野市大字川辺堀之内",
        "更新日": "2025/11/21",
        "_markerType": "Icon",
        "_iconUrl": "./icon/heri.svg",
        "_iconSize": [
          20,
          20
        ],
        "_iconAnchor": [
          10,
          10
        ]
      },
      "geometry": {
        "type": "Point",
        "coordinates": [
          139.397657,
          35.666226
        ]
      }
    },
    {
      "type": "Feature",
      "properties": {
        "name": "国道13号横堀道路",
        "住所又は概略位置": "秋田県湯沢市下院内",
        "更新日": "2025/11/22",
        "_markerType": "Icon",
        "_iconUrl": "./icon/heri.svg",
        "_iconSize": [
          20,
          20
        ],
        "_iconAnchor": [
          10,
          10
        ]
      },
      "geometry": {
        "type": "Point",
        "coordinates": [
          140.441408,
          39.051402
        ]
      }
    },
    {
      "type": "Feature",
      "properties": {
        "name": "一般国道161号小松拡幅14工区",
        "住所又は概略位置": "滋賀県大津市北小松",
        "更新日": "2025/11/24",
        "_markerType": "Icon",
        "_iconUrl": "./icon/heri.svg",
        "_iconSize": [
          20,
          20
        ],
        "_iconAnchor": [
          10,
          10
        ]
      },
      "geometry": {
        "type": "Point",
        "coordinates": [
          135.973063,
          35.255826
        ]
      }
    },
    {
      "type": "Feature",
      "properties": {
        "name": "国道107号（大石地区）",
        "住所又は概略位置": "岩手県西和賀町−",
        "更新日": "2025/11/30",
        "_markerType": "Icon",
        "_iconUrl": "./icon/heri.svg",
        "_iconSize": [
          20,
          20
        ],
        "_iconAnchor": [
          10,
          10
        ]
      },
      "geometry": {
        "type": "Point",
        "coordinates": [
          140.830865,
          39.308713
        ]
      }
    },
    {
      "type": "Feature",
      "properties": {
        "name": "兵庫県主要地方道18号加古川小野線（東播磨道北工区）（八幡三木ランプ～小野ランプ）（2／2車線）",
        "住所又は概略位置": "兵庫県三木市別所町正法寺",
        "更新日": "2025/11/30",
        "_markerType": "Icon",
        "_iconUrl": "./icon/heri.svg",
        "_iconSize": [
          20,
          20
        ],
        "_iconAnchor": [
          10,
          10
        ]
      },
      "geometry": {
        "type": "Point",
        "coordinates": [
          134.934264,
          34.808364
        ]
      }
    },
    {
      "type": "Feature",
      "properties": {
        "name": "兵庫県主要地方道84号宗佐土山線",
        "住所又は概略位置": "兵庫県加古川市八幡町宗佐",
        "更新日": "2025/11/30",
        "_markerType": "Icon",
        "_iconUrl": "./icon/heri.svg",
        "_iconSize": [
          20,
          20
        ],
        "_iconAnchor": [
          10,
          10
        ]
      },
      "geometry": {
        "type": "Point",
        "coordinates": [
          134.924995,
          34.795969
        ]
      }
    }
  ]
}
